CCSDS_OMM_VERS = 2.0
CREATION_DATE  = 
ORIGINATOR     = 

OBJECT_NAME    = ISS OBJECT XW
OBJECT_ID      = 1998-067XW
CENTER_NAME    = EARTH
REF_FRAME      = TEME
TIME_SYSTEM    = UTC
MEAN_ELEMENT_THEORY = SGP/SGP4

EPOCH          = 2026-02-20T12:58:55.102656
MEAN_MOTION    = 15.64112726
ECCENTRICITY   = .0003491
INCLINATION    = 51.6261
RA_OF_ASC_NODE = 152.6363
ARG_OF_PERICENTER = 2.9976
MEAN_ANOMALY   = 357.1039

EPHEMERIS_TYPE = 0
CLASSIFICATION_TYPE = U
NORAD_CAT_ID   = 66910
ELEMENT_SET_NO = 999
REV_AT_EPOCH   = 1249
BSTAR          = .10925E-2
MEAN_MOTION_DOT = .106532E-2
MEAN_MOTION_DDOT = 0

CCSDS_OMM_VERS = 2.0
CREATION_DATE  = 
ORIGINATOR     = 

OBJECT_NAME    = ISS OBJECT XX
OBJECT_ID      = 1998-067XX
CENTER_NAME    = EARTH
REF_FRAME      = TEME
TIME_SYSTEM    = UTC
MEAN_ELEMENT_THEORY = SGP/SGP4

EPOCH          = 2026-02-20T12:50:13.612992
MEAN_MOTION    = 15.67978124
ECCENTRICITY   = .0005407
INCLINATION    = 51.6245
RA_OF_ASC_NODE = 151.8410
ARG_OF_PERICENTER = 355.4162
MEAN_ANOMALY   = 4.6783

EPHEMERIS_TYPE = 0
CLASSIFICATION_TYPE = U
NORAD_CAT_ID   = 66911
ELEMENT_SET_NO = 999
REV_AT_EPOCH   = 1249
BSTAR          = .13502E-2
MEAN_MOTION_DOT = .154962E-2
MEAN_MOTION_DDOT = 0

CCSDS_OMM_VERS = 2.0
CREATION_DATE  = 
ORIGINATOR     = 

OBJECT_NAME    = ISS OBJECT XY
OBJECT_ID      = 1998-067XY
CENTER_NAME    = EARTH
REF_FRAME      = TEME
TIME_SYSTEM    = UTC
MEAN_ELEMENT_THEORY = SGP/SGP4

EPOCH          = 2026-02-20T07:22:54.506784
MEAN_MOTION    = 15.60538174
ECCENTRICITY   = .0001593
INCLINATION    = 51.6292
RA_OF_ASC_NODE = 154.8409
ARG_OF_PERICENTER = 7.5463
MEAN_ANOMALY   = 352.5554

EPHEMERIS_TYPE = 0
CLASSIFICATION_TYPE = U
NORAD_CAT_ID   = 66912
ELEMENT_SET_NO = 999
REV_AT_EPOCH   = 1243
BSTAR          = .72543E-3
MEAN_MOTION_DOT = .60985E-3
MEAN_MOTION_DDOT = 0

CCSDS_OMM_VERS = 2.0
CREATION_DATE  = 
ORIGINATOR     = 

OBJECT_NAME    = ISS OBJECT XZ
OBJECT_ID      = 1998-067XZ
CENTER_NAME    = EARTH
REF_FRAME      = TEME
TIME_SYSTEM    = UTC
MEAN_ELEMENT_THEORY = SGP/SGP4

EPOCH          = 2026-02-20T14:09:05.981184
MEAN_MOTION    = 15.50393138
ECCENTRICITY   = .0010139
INCLINATION    = 51.6317
RA_OF_ASC_NODE = 156.7216
ARG_OF_PERICENTER = 129.0242
MEAN_ANOMALY   = 231.1651

EPHEMERIS_TYPE = 0
CLASSIFICATION_TYPE = U
NORAD_CAT_ID   = 67683
ELEMENT_SET_NO = 999
REV_AT_EPOCH   = 213
BSTAR          = .59746E-3
MEAN_MOTION_DOT = .34329E-3
MEAN_MOTION_DDOT = 0

CCSDS_OMM_VERS = 2.0
CREATION_DATE  = 
ORIGINATOR     = 

OBJECT_NAME    = GXIBA-1
OBJECT_ID      = 1998-067YA
CENTER_NAME    = EARTH
REF_FRAME      = TEME
TIME_SYSTEM    = UTC
MEAN_ELEMENT_THEORY = SGP/SGP4

EPOCH          = 2026-02-20T13:58:26.229792
MEAN_MOTION    = 15.51598585
ECCENTRICITY   = .0011811
INCLINATION    = 51.6312
RA_OF_ASC_NODE = 156.6723
ARG_OF_PERICENTER = 122.4211
MEAN_ANOMALY   = 237.7923

EPHEMERIS_TYPE = 0
CLASSIFICATION_TYPE = U
NORAD_CAT_ID   = 67684
ELEMENT_SET_NO = 999
REV_AT_EPOCH   = 213
BSTAR          = .1047E-2
MEAN_MOTION_DOT = .63461E-3
MEAN_MOTION_DDOT = 0

CCSDS_OMM_VERS = 2.0
CREATION_DATE  = 
ORIGINATOR     = 

OBJECT_NAME    = CORAL
OBJECT_ID      = 1998-067YB
CENTER_NAME    = EARTH
REF_FRAME      = TEME
TIME_SYSTEM    = UTC
MEAN_ELEMENT_THEORY = SGP/SGP4

EPOCH          = 2026-02-20T17:12:43.666848
MEAN_MOTION    = 15.50604636
ECCENTRICITY   = .0012066
INCLINATION    = 51.6311
RA_OF_ASC_NODE = 156.0725
ARG_OF_PERICENTER = 125.8879
MEAN_ANOMALY   = 234.3232

EPHEMERIS_TYPE = 0
CLASSIFICATION_TYPE = U
NORAD_CAT_ID   = 67685
ELEMENT_SET_NO = 999
REV_AT_EPOCH   = 215
BSTAR          = .64316E-3
MEAN_MOTION_DOT = .37317E-3
MEAN_MOTION_DDOT = 0

CCSDS_OMM_VERS = 2.0
CREATION_DATE  = 
ORIGINATOR     = 

OBJECT_NAME    = ISS OBJECT YC
OBJECT_ID      = 1998-067YC
CENTER_NAME    = EARTH
REF_FRAME      = TEME
TIME_SYSTEM    = UTC
MEAN_ELEMENT_THEORY = SGP/SGP4

EPOCH          = 2026-02-20T14:05:07.570752
MEAN_MOTION    = 15.50839281
ECCENTRICITY   = .0007745
INCLINATION    = 51.6318
RA_OF_ASC_NODE = 156.7029
ARG_OF_PERICENTER = 97.2431
MEAN_ANOMALY   = 262.9439

EPHEMERIS_TYPE = 0
CLASSIFICATION_TYPE = U
NORAD_CAT_ID   = 67686
ELEMENT_SET_NO = 999
REV_AT_EPOCH   = 213
BSTAR          = .7522E-3
MEAN_MOTION_DOT = .44056E-3
MEAN_MOTION_DDOT = 0

CCSDS_OMM_VERS = 2.0
CREATION_DATE  = 
ORIGINATOR     = 

OBJECT_NAME    = LEOPARD
OBJECT_ID      = 1998-067YD
CENTER_NAME    = EARTH
REF_FRAME      = TEME
TIME_SYSTEM    = UTC
MEAN_ELEMENT_THEORY = SGP/SGP4

EPOCH          = 2026-02-20T14:07:56.341056
MEAN_MOTION    = 15.50512324
ECCENTRICITY   = .0007833
INCLINATION    = 51.6317
RA_OF_ASC_NODE = 156.7164
ARG_OF_PERICENTER = 99.8839
MEAN_ANOMALY   = 260.3035

EPHEMERIS_TYPE = 0
CLASSIFICATION_TYPE = U
NORAD_CAT_ID   = 67687
ELEMENT_SET_NO = 999
REV_AT_EPOCH   = 205
BSTAR          = .61232E-3
MEAN_MOTION_DOT = .35321E-3
MEAN_MOTION_DDOT = 0

CCSDS_OMM_VERS = 2.0
CREATION_DATE  = 
ORIGINATOR     = 

OBJECT_NAME    = ISS OBJECT YE
OBJECT_ID      = 1998-067YE
CENTER_NAME    = EARTH
REF_FRAME      = TEME
TIME_SYSTEM    = UTC
MEAN_ELEMENT_THEORY = SGP/SGP4

EPOCH          = 2026-02-20T14:05:56.023008
MEAN_MOTION    = 15.50727857
ECCENTRICITY   = .0007731
INCLINATION    = 51.6326
RA_OF_ASC_NODE = 156.7077
ARG_OF_PERICENTER = 98.0335
MEAN_ANOMALY   = 262.1532

EPHEMERIS_TYPE = 0
CLASSIFICATION_TYPE = U
NORAD_CAT_ID   = 67688
ELEMENT_SET_NO = 999
REV_AT_EPOCH   = 205
BSTAR          = .69449E-3
MEAN_MOTION_DOT = .4046E-3
MEAN_MOTION_DDOT = 0

CCSDS_OMM_VERS = 2.0
CREATION_DATE  = 
ORIGINATOR     = 

OBJECT_NAME    = CREW DRAGON 12
OBJECT_ID      = 2026-031A
CENTER_NAME    = EARTH
REF_FRAME      = TEME
TIME_SYSTEM    = UTC
MEAN_ELEMENT_THEORY = SGP/SGP4

EPOCH          = 2026-02-20T05:11:11.637888
MEAN_MOTION    = 15.48153499
ECCENTRICITY   = .00085755
INCLINATION    = 51.6324
RA_OF_ASC_NODE = 158.7245
ARG_OF_PERICENTER = 115.0388
MEAN_ANOMALY   = 245.1491

EPHEMERIS_TYPE = 0
CLASSIFICATION_TYPE = U
NORAD_CAT_ID   = 67796
ELEMENT_SET_NO = 999
REV_AT_EPOCH   = 55359
BSTAR          = .18283655E-3
MEAN_MOTION_DOT = .9352E-4
MEAN_MOTION_DDOT = 0

